COMMENT,ORIGINATOR,NORAD_CAT_ID,OBJECT_NAME,OBJECT_TYPE,CLASSIFICATION_TYPE,INTLDES,EPOCH,EPOCH_MICROSECONDS,MEAN_MOTION,ECCENTRICITY,INCLINATION,RA_OF_ASC_NODE,ARG_OF_PERICENTER,MEAN_ANOMALY,EPHEMERIS_TYPE,ELEMENT_SET_NO,REV_AT_EPOCH,BSTAR,MEAN_MOTION_DOT,MEAN_MOTION_DDOT,FILE,TLE_LINE0,TLE_LINE1,TLE_LINE2,OBJECT_ID,OBJECT_NUMBER,SEMIMAJOR_AXIS,PERIOD,APOGEE,PERIGEE,DECAYED
"GENERATED VIA SPACETRACK.ORG API","18 SPCS","47950","OBJECT U","TBA","U","21022U","2021-04-22 13:47:04","255584","15.05556048","0.0022405","97.5594","15.8347","139.401","339.7214","0","999","464","0.000068172","0.00000925","0","3023174","0 OBJECT U","1 47950U 21022U   21112.57435481  .00000925  00000-0  68172-4 0  9990","2 47950  97.5594  15.8347 0022405 139.4010 339.7214 15.05556048  4647","2021-022U","47950","6927.936","95.646","565.323","534.279","0"
"GENERATED VIA SPACETRACK.ORG API","18 SPCS","47950","OBJECT U","TBA","U","21022U","2021-04-22 20:01:47","795808","15.05556896","0.0022368","97.5594","16.0895","138.6183","310.0465","0","999","468","0.000070434","0.00000958","0","3023332","0 OBJECT U","1 47950U 21022U   21112.83458097  .00000958  00000-0  70434-4 0  9997","2 47950  97.5594  16.0895 0022368 138.6183 310.0465 15.05556896  4683","2021-022U","47950","6927.934","95.646","565.295","534.302","0"
"GENERATED VIA SPACETRACK.ORG API","18 SPCS","47950","OBJECT U","TBA","U","21022U","2021-04-22 20:01:47","795808","15.05556896","0.0022368","97.5594","16.0895","138.6183","310.0465","0","999","468","0.000070434","0.00000958","0","3023398","0 OBJECT U","1 47950U 21022U   21112.83458097  .00000958  00000-0  70434-4 0  9997","2 47950  97.5594  16.0895 0022368 138.6183 310.0465 15.05556896  4683","2021-022U","47950","6927.934","95.646","565.295","534.302","0"
"GENERATED VIA SPACETRACK.ORG API","18 SPCS","47950","OBJECT U","TBA","U","21022U","2021-04-23 04:18:26","95680","15.05558013","0.0022475","97.5594","16.4273","137.6314","19.1559","0","999","473","0.000073874","0.00001008","0","3023589","0 OBJECT U","1 47950U 21022U   21113.17946870  .00001008  00000-0  73874-4 0  9994","2 47950  97.5594  16.4273 0022475 137.6314  19.1559 15.05558013  4731","2021-022U","47950","6927.930","95.646","565.366","534.225","0"
"GENERATED VIA SPACETRACK.ORG API","18 SPCS","47950","OBJECT U","TBA","U","21022U","2021-04-23 04:18:26","95680","15.05558013","0.0022475","97.5594","16.4273","137.6314","19.1559","0","999","473","0.000073874","0.00001008","0","3023644","0 OBJECT U","1 47950U 21022U   21113.17946870  .00001008  00000-0  73874-4 0  9994","2 47950  97.5594  16.4273 0022475 137.6314  19.1559 15.05558013  4731","2021-022U","47950","6927.930","95.646","565.366","534.225","0"
"GENERATED VIA SPACETRACK.ORG API","18 SPCS","47950","OBJECT U","TBA","U","21022U","2021-04-23 18:21:04","8672","15.05560197","0.0022389","97.5594","17.0004","135.7374","310.641","0","999","482","0.000081807","0.00001123","0","3023887","0 OBJECT U","1 47950U 21022U   21113.76462973  .00001123  00000-0  81807-4 0  9999","2 47950  97.5594  17.0004 0022389 135.7374 310.6410 15.05560197  4820","2021-022U","47950","6927.924","95.645","565.300","534.278","0"
"GENERATED VIA SPACETRACK.ORG API","18 SPCS","47950","OBJECT U","TBA","U","21022U","2021-04-23 18:21:04","8672","15.05560197","0.0022389","97.5594","17.0004","135.7374","310.641","0","999","482","0.000081807","0.00001123","0","3023973","0 OBJECT U","1 47950U 21022U   21113.76462973  .00001123  00000-0  81807-4 0  9999","2 47950  97.5594  17.0004 0022389 135.7374 310.6410 15.05560197  4820","2021-022U","47950","6927.924","95.645","565.300","534.278","0"
"GENERATED VIA SPACETRACK.ORG API","18 SPCS","47950","OBJECT U","TBA","U","21022U","2021-04-24 02:25:13","714752","15.05561667","0.0022442","97.5594","17.3298","134.8185","332.7568","0","999","487","0.00008735","0.00001203","0","3024128","0 OBJECT U","1 47950U 21022U   21114.10085318  .00001203  00000-0  87350-4 0  9990","2 47950  97.5594  17.3298 0022442 134.8185 332.7568 15.05561667  4875","2021-022U","47950","6927.919","95.645","565.332","534.236","0"
"GENERATED VIA SPACETRACK.ORG API","18 SPCS","47950","OBJECT U","TBA","U","21022U","2021-04-24 12:17:07","26432","15.05563135","0.0022566","97.5596","17.733","133.4667","40.5245","0","999","493","0.00009125","0.0000126","0","3024415","0 OBJECT U","1 47950U 21022U   21114.51188688  .00001260  00000-0  91250-4 0  9996","2 47950  97.5596  17.7330 0022566 133.4667  40.5245 15.05563135  4930","2021-022U","47950","6927.915","95.645","565.413","534.146","0"
"GENERATED VIA SPACETRACK.ORG API","18 SPCS","47950","OBJECT U","TBA","U","21022U","2021-04-24 14:54:26","110656","15.05563596","0.0022556","97.5596","17.84","133.1383","272.6125","0","999","495","0.000092787","0.00001282","0","3024349","0 OBJECT U","1 47950U 21022U   21114.62113554  .00001282  00000-0  92787-4 0  9998","2 47950  97.5596  17.8400 0022556 133.1383 272.6125 15.05563596  4958","2021-022U","47950","6927.913","95.645","565.405","534.152","0"
"GENERATED VIA SPACETRACK.ORG API","18 SPCS","47950","OBJECT U","TBA","U","21022U","2021-04-24 19:40:41","358432","15.05564532","0.002252","97.5594","18.0343","132.5884","269.9225","0","999","498","0.000095896","0.00001327","0","3024421","0 OBJECT U","1 47950U 21022U   21114.81992313  .00001327  00000-0  95896-4 0  9991","2 47950  97.5594  18.0343 0022520 132.5884 269.9225 15.05564532  4989","2021-022U","47950","6927.910","95.645","565.377","534.174","0"
"GENERATED VIA SPACETRACK.ORG API","18 SPCS","47950","OBJECT U","TBA","U","21022U","2021-04-25 02:20:47","881824","15.05565545","0.0022495","97.5592","18.306","131.6092","335.9307","0","999","502","0.00009771","0.00001353","0","3024776","0 OBJECT U","1 47950U 21022U   21115.09777641  .00001353  00000-0  97710-4 0  9993","2 47950  97.5592  18.3060 0022495 131.6092 335.9307 15.05565545  5024","2021-022U","47950","6927.907","95.645","565.357","534.188","0"
"GENERATED VIA SPACETRACK.ORG API","18 SPCS","47950","OBJECT U","TBA","U","21022U","2021-04-25 11:49:27","30144","15.0556705","0.0022539","97.5593","18.6929","130.2802","316.2771","0","999","508","0.00010081","0.00001398","0","3024974","0 OBJECT U","1 47950U 21022U   21115.49267396  .00001398  00000-0  10081-3 0  9992","2 47950  97.5593  18.6929 0022539 130.2802 316.2771 15.05567050  5081","2021-022U","47950","6927.903","95.645","565.382","534.153","0"
"GENERATED VIA SPACETRACK.ORG API","18 SPCS","47950","OBJECT U","TBA","U","21022U","2021-04-25 11:49:27","30144","15.0556705","0.0022539","97.5593","18.6929","130.2802","316.2771","0","999","508","0.00010081","0.00001398","0","3025031","0 OBJECT U","1 47950U 21022U   21115.49267396  .00001398  00000-0  10081-3 0  9992","2 47950  97.5593  18.6929 0022539 130.2802 316.2771 15.05567050  5081","2021-022U","47950","6927.903","95.645","565.382","534.153","0"
"GENERATED VIA SPACETRACK.ORG API","18 SPCS","47950","OBJECT U","TBA","U","21022U","2021-04-25 19:44:22","238304","15.05568771","0.0022627","97.5594","19.0162","129.4397","303.5612","0","999","513","0.00010696","0.00001487","0","3025239","0 OBJECT U","1 47950U 21022U   21115.82247961  .00001487  00000-0  10696-3 0  9996","2 47950  97.5594  19.0162 0022627 129.4397 303.5612 15.05568771  5133","2021-022U","47950","6927.897","95.645","565.438","534.087","0"
"GENERATED VIA SPACETRACK.ORG API","18 SPCS","47950","OBJECT U","TBA","U","21022U","2021-04-25 19:44:22","238304","15.05568771","0.0022627","97.5594","19.0162","129.4397","303.5612","0","999","513","0.00010696","0.00001487","0","3025244","0 OBJECT U","1 47950U 21022U   21115.82247961  .00001487  00000-0  10696-3 0  9996","2 47950  97.5594  19.0162 0022627 129.4397 303.5612 15.05568771  5133","2021-022U","47950","6927.897","95.645","565.438","534.087","0"
"GENERATED VIA SPACETRACK.ORG API","18 SPCS","47950","OBJECT U","TBA","U","21022U","2021-04-26 04:01:34","129632","15.05570464","0.0022663","97.5594","19.3541","128.3786","14.8661","0","999","518","0.0001123","0.00001565","0","3025432","0 OBJECT U","1 47950U 21022U   21116.16775613  .00001565  00000-0  11230-3 0  9996","2 47950  97.5594  19.3541 0022663 128.3786  14.8661 15.05570464  5180","2021-022U","47950","6927.892","95.645","565.458","534.056","0"
"GENERATED VIA SPACETRACK.ORG API","18 SPCS","47950","OBJECT U","TBA","U","21022U","2021-04-26 13:29:48","155424","15.05572263","0.0022712","97.5596","19.7409","127.0696","353.6259","0","999","524","0.00011616","0.00001621","0","3025641","0 OBJECT U","1 47950U 21022U   21116.56236291  .00001621  00000-0  11616-3 0  9995","2 47950  97.5596  19.7409 0022712 127.0696 353.6259 15.05572263  5243","2021-022U","47950","6927.887","95.645","565.486","534.017","0"
"GENERATED VIA SPACETRACK.ORG API","18 SPCS","47950","OBJECT U","TBA","U","21022U","2021-04-26 13:29:48","155424","15.05572263","0.0022712","97.5596","19.7409","127.0696","353.6259","0","999","524","0.00011616","0.00001621","0","3025671","0 OBJECT U","1 47950U 21022U   21116.56236291  .00001621  00000-0  11616-3 0  9995","2 47950  97.5596  19.7409 0022712 127.0696 353.6259 15.05572263  5243","2021-022U","47950","6927.887","95.645","565.486","534.017","0"
"GENERATED VIA SPACETRACK.ORG API","18 SPCS","47950","OBJECT U","TBA","U","21022U","2021-04-26 21:13:02","287200","15.05573847","0.0022717","97.5595","20.0562","126.1835","297.0069","0","999","529","0.00012036","0.00001682","0","3025875","0 OBJECT U","1 47950U 21022U   21116.88405425  .00001682  00000-0  12036-3 0  9991","2 47950  97.5595  20.0562 0022717 126.1835 297.0069 15.05573847  5291","2021-022U","47950","6927.882","95.645","565.485","534.009","0"
